[{"spaceTrack":{"CCSDS_OMM_VERS":"2.0","COMMENT":"GENERATED VIA SPACE-TRACK.ORG API","CREATION_DATE":"2021-05-12T14:36:10","ORIGINATOR":"18 SPCS","OBJECT_NAME":"STARLINK-1673","OBJECT_ID":"2020-062C","CENTER_NAME":"EARTH","REF_FRAME":"TEME","TIME_SYSTEM":"UTC","MEAN_ELEMENT_THEORY":"SGP4","EPOCH":"2021-05-12T08:47:15.212256","MEAN_MOTION":15.0639877,"ECCENTRICITY":0.0001916,"INCLINATION":53.056,"RA_OF_ASC_NODE":8.0039,"ARG_OF_PERICENTER":86.5183,"MEAN_ANOMALY":273.6025,"EPHEMERIS_TYPE":0,"CLASSIFICATION_TYPE":"U","NORAD_CAT_ID":46327,"ELEMENT_SET_NO":999,"REV_AT_EPOCH":3886,"BSTAR":-0.00003177,"MEAN_MOTION_DOT":-0.00000755,"MEAN_MOTION_DDOT":0,"SEMIMAJOR_AXIS":6925.352,"PERIOD":95.592,"APOAPSIS":548.544,"PERIAPSIS":545.89,"OBJECT_TYPE":"PAYLOAD","RCS_SIZE":"LARGE","COUNTRY_CODE":"US","LAUNCH_DATE":"2020-09-03","SITE":"AFETR","DECAY_DATE":null,"DECAYED":0,"FILE":3035480,"GP_ID":177113119,"TLE_LINE0":"0 STARLINK-1673","TLE_LINE1":"1 46327U 20062C   21132.36614829 -.00000755  00000-0 -31770-4 0  9991","TLE_LINE2":"2 46327  53.0560   8.0039 0001916  86.5183 273.6025 15.06398770 38867"},"version":"v1.0","launch":"5ef6a1e90059c33cee4a828a","longitude":-98.40338579210791,"latitude":43.506502341245614,"height_km":550.4083924434863,"velocity_kms":7.592739048745214,"id":"5f5a9c1f2fd30c00065e5ef2"},{"spaceTrack":{"CCSDS_OMM_VERS":"2.0","COMMENT":"GENERATED VIA SPACE-TRACK.ORG API","CREATION_DATE":"2021-05-12T14:56:11","ORIGINATOR":"18 SPCS","OBJECT_NAME":"STARLINK-1744","OBJECT_ID":"2020-070BH","CENTER_NAME":"EARTH","REF_FRAME":"TEME","TIME_SYSTEM":"UTC","MEAN_ELEMENT_THEORY":"SGP4","EPOCH":"2021-05-12T10:49:41.606400","MEAN_MOTION":15.44003863,"ECCENTRICITY":0.0001896,"INCLINATION":53.054,"RA_OF_ASC_NODE":98.4769,"ARG_OF_PERICENTER":71.0425,"MEAN_ANOMALY":289.0786,"EPHEMERIS_TYPE":0,"CLASSIFICATION_TYPE":"U","NORAD_CAT_ID":46587,"ELEMENT_SET_NO":999,"REV_AT_EPOCH":3486,"BSTAR":0.0060731,"MEAN_MOTION_DOT":0.00291718,"MEAN_MOTION_DDOT":0,"SEMIMAJOR_AXIS":6812.444,"PERIOD":93.264,"APOAPSIS":435.6,"PERIAPSIS":433.017,"OBJECT_TYPE":"PAYLOAD","RCS_SIZE":"LARGE","COUNTRY_CODE":"US","LAUNCH_DATE":"2020-10-06","SITE":"AFETR","DECAY_DATE":null,"DECAYED":0,"FILE":3035617,"GP_ID":177116241,"TLE_LINE0":"0 STARLINK-1744","TLE_LINE1":"1 46587U 20070BH  21132.45117600  .00291718  00000-0  60731-2 0  9999","TLE_LINE2":"2 46587  53.0540  98.4769 0001896  71.0425 289.0786 15.44003863 34860"},"version":"v1.0","launch":"5ef6a2090059c33cee4a828b","longitude":-51.84048656247385,"latitude":1.3569880828876986,"height_km":434.0558161870613,"velocity_kms":7.65284218782905,"id":"5f889667c86e27000615b18d"},{"spaceTrack":{"CCSDS_OMM_VERS":"2.0","COMMENT":"GENERATED VIA SPACE-TRACK.ORG API","CREATION_DATE":"2021-05-12T07:56:10","ORIGINATOR":"18 SPCS","OBJECT_NAME":"STARLINK-1682","OBJECT_ID":"2020-070AX","CENTER_NAME":"EARTH","REF_FRAME":"TEME","TIME_SYSTEM":"UTC","MEAN_ELEMENT_THEORY":"SGP4","EPOCH":"2021-05-12T06:02:03.525216","MEAN_MOTION":15.06393367,"ECCENTRICITY":0.000059,"INCLINATION":53.0559,"RA_OF_ASC_NODE":153.5121,"ARG_OF_PERICENTER":79.2381,"MEAN_ANOMALY":280.8674,"EPHEMERIS_TYPE":0,"CLASSIFICATION_TYPE":"U","NORAD_CAT_ID":46577,"ELEMENT_SET_NO":999,"REV_AT_EPOCH":3407,"BSTAR":-0.000085703,"MEAN_MOTION_DOT":-0.00001557,"MEAN_MOTION_DDOT":0,"SEMIMAJOR_AXIS":6925.369,"PERIOD":95.593,"APOAPSIS":547.642,"PERIAPSIS":546.825,"OBJECT_TYPE":"PAYLOAD","RCS_SIZE":"LARGE","COUNTRY_CODE":"US","LAUNCH_DATE":"2020-10-06","SITE":"AFETR","DECAY_DATE":null,"DECAYED":0,"FILE":3035376,"GP_ID":177111306,"TLE_LINE0":"0 STARLINK-1682","TLE_LINE1":"1 46577U 20070AX  21132.25142969 -.00001557  00000-0 -85703-4 0  9992","TLE_LINE2":"2 46577  53.0559 153.5121 0000590  79.2381 280.8674 15.06393367 34072"},"version":"v1.0","launch":"5ef6a2090059c33cee4a828b","longitude":-24.14520973666846,"latitude":-29.935065262911333,"height_km":556.529073190557,"velocity_kms":7.583125899740268,"id":"5f889667c86e27000615b1a9"},{"spaceTrack":{"CCSDS_OMM_VERS":"2.0","COMMENT":"GENERATED VIA SPACE-TRACK.ORG API","CREATION_DATE":"2021-05-12T04:44:40","ORIGINATOR":"18 SPCS","OBJECT_NAME":"STARLINK-1699","OBJECT_ID":"2020-070S","CENTER_NAME":"EARTH","REF_FRAME":"TEME","TIME_SYSTEM":"UTC","MEAN_ELEMENT_THEORY":"SGP4","EPOCH":"2021-05-11T14:17:58.079040","MEAN_MOTION":15.06391051,"ECCENTRICITY":0.0000452,"INCLINATION":53.057,"RA_OF_ASC_NODE":171.4451,"ARG_OF_PERICENTER":122.9722,"MEAN_ANOMALY":237.1311,"EPHEMERIS_TYPE":0,"CLASSIFICATION_TYPE":"U","NORAD_CAT_ID":46548,"ELEMENT_SET_NO":999,"REV_AT_EPOCH":3376,"BSTAR":0.000042374,"MEAN_MOTION_DOT":0.0000035,"MEAN_MOTION_DDOT":0,"SEMIMAJOR_AXIS":6925.376,"PERIOD":95.593,"APOAPSIS":547.554,"PERIAPSIS":546.928,"OBJECT_TYPE":"PAYLOAD","RCS_SIZE":"LARGE","COUNTRY_CODE":"US","LAUNCH_DATE":"2020-10-06","SITE":"AFETR","DECAY_DATE":null,"DECAYED":0,"FILE":3035157,"GP_ID":177105388,"TLE_LINE0":"0 STARLINK-1699","TLE_LINE1":"1 46548U 20070S   21131.59581110  .00000350  00000-0  42374-4 0  9996","TLE_LINE2":"2 46548  53.0570 171.4451 0000452 122.9722 237.1311 15.06391051 33766"},"version":"v1.0","launch":"5ef6a2090059c33cee4a828b","longitude":-58.74849267493832,"latitude":-52.26330001351949,"height_km":565.6356999240807,"velocity_kms":7.578031523374231,"id":"5f889668c86e27000615b1ea"},{"spaceTrack":{"CCSDS_OMM_VERS":"2.0","COMMENT":"GENERATED VIA SPACE-TRACK.ORG API","CREATION_DATE":"2021-05-12T07:56:10","ORIGINATOR":"18 SPCS","OBJECT_NAME":"STARLINK-1709","OBJECT_ID":"2020-070AF","CENTER_NAME":"EARTH","REF_FRAME":"TEME","TIME_SYSTEM":"UTC","MEAN_ELEMENT_THEORY":"SGP4","EPOCH":"2021-05-12T06:07:22.876896","MEAN_MOTION":15.06395768,"ECCENTRICITY":0.0000573,"INCLINATION":53.0564,"RA_OF_ASC_NODE":153.4995,"ARG_OF_PERICENTER":87.8537,"MEAN_ANOMALY":272.2518,"EPHEMERIS_TYPE":0,"CLASSIFICATION_TYPE":"U","NORAD_CAT_ID":46561,"ELEMENT_SET_NO":999,"REV_AT_EPOCH":3408,"BSTAR":0.000042071,"MEAN_MOTION_DOT":0.00000346,"MEAN_MOTION_DDOT":0,"SEMIMAJOR_AXIS":6925.362,"PERIOD":95.592,"APOAPSIS":547.623,"PERIAPSIS":546.83,"OBJECT_TYPE":"PAYLOAD","RCS_SIZE":"LARGE","COUNTRY_CODE":"US","LAUNCH_DATE":"2020-10-06","SITE":"AFETR","DECAY_DATE":null,"DECAYED":0,"FILE":3035387,"GP_ID":177111452,"TLE_LINE0":"0 STARLINK-1709","TLE_LINE1":"1 46561U 20070AF  21132.25512589  .00000346  00000-0  42071-4 0  9998","TLE_LINE2":"2 46561  53.0564 153.4995 0000573  87.8537 272.2518 15.06395768 34088"},"version":"v1.0","launch":"5ef6a2090059c33cee4a828b","longitude":-42.97685292273136,"latitude":-43.061976373253195,"height_km":561.97090523316,"velocity_kms":7.579972581184027,"id":"5f889668c86e27000615b1ec"},{"spaceTrack":{"CCSDS_OMM_VERS":"2.0","COMMENT":"GENERATED VIA SPACE-TRACK.ORG API","CREATION_DATE":"2021-05-12T04:44:40","ORIGINATOR":"18 SPCS","OBJECT_NAME":"STARLINK-1693","OBJECT_ID":"2020-070M","CENTER_NAME":"EARTH","REF_FRAME":"TEME","TIME_SYSTEM":"UTC","MEAN_ELEMENT_THEORY":"SGP4","EPOCH":"2021-05-11T14:23:15.783072","MEAN_MOTION":15.06396842,"ECCENTRICITY":0.0000368,"INCLINATION":53.057,"RA_OF_ASC_NODE":171.4398,"ARG_OF_PERICENTER":130.3425,"MEAN_ANOMALY":229.7597,"EPHEMERIS_TYPE":0,"CLASSIFICATION_TYPE":"U","NORAD_CAT_ID":46543,"ELEMENT_SET_NO":999,"REV_AT_EPOCH":3376,"BSTAR":0.000096233,"MEAN_MOTION_DOT":0.00001153,"MEAN_MOTION_DDOT":0,"SEMIMAJOR_AXIS":6925.358,"PERIOD":95.592,"APOAPSIS":547.478,"PERIAPSIS":546.968,"OBJECT_TYPE":"PAYLOAD","RCS_SIZE":"LARGE","COUNTRY_CODE":"US","LAUNCH_DATE":"2020-10-06","SITE":"AFETR","DECAY_DATE":null,"DECAYED":0,"FILE":3035157,"GP_ID":177105137,"TLE_LINE0":"0 STARLINK-1693","TLE_LINE1":"1 46543U 20070M   21131.59948823  .00001153  00000-0  96233-4 0  9994","TLE_LINE2":"2 46543  53.0570 171.4398 0000368 130.3425 229.7597 15.06396842 33766"},"version":"v1.0","launch":"5ef6a2090059c33cee4a828b","longitude":-91.29543713235513,"latitude":-51.87262225324527,"height_km":565.3293232008227,"velocity_kms":7.578268150491221,"id":"5f889668c86e27000615b1e9"},{"spaceTrack":{"CCSDS_OMM_VERS":"2.0","COMMENT":"GENERATED VIA SPACE-TRACK.ORG API","CREATION_DATE":"2021-05-12T07:56:10","ORIGINATOR":"18 SPCS","OBJECT_NAME":"STARLINK-1701","OBJECT_ID":"2020-070U","CENTER_NAME":"EARTH","REF_FRAME":"TEME","TIME_SYSTEM":"UTC","MEAN_ELEMENT_THEORY":"SGP4","EPOCH":"2021-05-12T03:23:31.230816","MEAN_MOTION":15.06395183,"ECCENTRICITY":0.000042,"INCLINATION":53.0579,"RA_OF_ASC_NODE":169.0056,"ARG_OF_PERICENTER":161.6402,"MEAN_ANOMALY":198.4602,"EPHEMERIS_TYPE":0,"CLASSIFICATION_TYPE":"U","NORAD_CAT_ID":46550,"ELEMENT_SET_NO":999,"REV_AT_EPOCH":3386,"BSTAR":0.000046242,"MEAN_MOTION_DOT":0.00000408,"MEAN_MOTION_DDOT":0,"SEMIMAJOR_AXIS":6925.363,"PERIOD":95.592,"APOAPSIS":547.519,"PERIAPSIS":546.937,"OBJECT_TYPE":"PAYLOAD","RCS_SIZE":"LARGE","COUNTRY_CODE":"US","LAUNCH_DATE":"2020-10-06","SITE":"AFETR","DECAY_DATE":null,"DECAYED":0,"FILE":3035380,"GP_ID":177111351,"TLE_LINE0":"0 STARLINK-1701","TLE_LINE1":"1 46550U 20070U   21132.14133369  .00000408  00000-0  46242-4 0  9992","TLE_LINE2":"2 46550  53.0579 169.0056 0000420 161.6402 198.4602 15.06395183 33865"},"version":"v1.0","launch":"5ef6a2090059c33cee4a828b","longitude":-151.84018179872047,"latitude":-15.289303556093701,"height_km":551.078508038453,"velocity_kms":7.586767542050453,"id":"5f889668c86e27000615b1f3"}]